start=new Date('2022-12-28T00:00:00.000Z').valueOf();
sats=[{"LAUNCH_DATE":"2021-04-29","BSTAR":"0.00019926000000","INCLINATION":"53.0546","MEAN_ELEMENT_THEORY":"SGP4","FILE":"3723863","DECAY_DATE":null,"ARG_OF_PERICENTER":"86.8406","CLASSIFICATION_TYPE":"U","NORAD_CAT_ID":"48323","MEAN_MOTION_DOT":"0.00002688","MEAN_MOTION_DDOT":"0.0000000000000","SEMIMAJOR_AXIS":"6925.334","OBJECT_NAME":"STARLINK-2515","ELEMENT_SET_NO":"999","TLE_LINE2":"2 48323  53.0546 306.5553 0001444  86.8406 273.2748 15.06404910 91932","SITE":"AFETR","EPOCH":"2022-12-27T08:07:01.293024","OBJECT_ID":"2021-036AZ","RA_OF_ASC_NODE":"306.5553","ECCENTRICITY":"0.00014440","PERIOD":"95.592","RCS_SIZE":"LARGE","APOAPSIS":"548.199","PERIAPSIS":"546.198","COUNTRY_CODE":"US","TLE_LINE1":"1 48323U 21036AZ  22361.33820941  .00002688  00000-0  19926-3 0  9990","OBJECT_TYPE":"PAYLOAD","GP_ID":"221564624","TIME_SYSTEM":"UTC","REF_FRAME":"TEME","EPHEMERIS_TYPE":"0","MEAN_ANOMALY":"273.2748","REV_AT_EPOCH":"9193","MEAN_MOTION":"15.06404910","CENTER_NAME":"EARTH"},{"APOAPSIS":"548.229","ECCENTRICITY":"0.00015370","RCS_SIZE":"LARGE","PERIOD":"95.591","MEAN_ANOMALY":"269.4840","EPHEMERIS_TYPE":"0","REF_FRAME":"TEME","CENTER_NAME":"EARTH","REV_AT_EPOCH":"9191","MEAN_MOTION":"15.06416022","COUNTRY_CODE":"US","PERIAPSIS":"546.100","TIME_SYSTEM":"UTC","GP_ID":"221563372","OBJECT_TYPE":"PAYLOAD","TLE_LINE1":"1 48324U 21036BA  22361.26723003  .00008537  00000-0  59108-3 0  9999","CLASSIFICATION_TYPE":"U","ARG_OF_PERICENTER":"90.6325","DECAY_DATE":null,"FILE":"3723863","MEAN_ELEMENT_THEORY":"SGP4","NORAD_CAT_ID":"48324","BSTAR":"0.00059108000000","INCLINATION":"53.0566","LAUNCH_DATE":"2021-04-29","EPOCH":"2022-12-27T06:24:48.674592","TLE_LINE2":"2 48324  53.0566 306.8663 0001537  90.6325 269.4840 15.06416022 91911","SITE":"AFETR","ELEMENT_SET_NO":"999","RA_OF_ASC_NODE":"306.8663","OBJECT_ID":"2021-036BA","MEAN_MOTION_DDOT":"0.0000000000000","MEAN_MOTION_DOT":"0.00008537","OBJECT_NAME":"STARLINK-2527","SEMIMAJOR_AXIS":"6925.299"},{"RA_OF_ASC_NODE":"306.8930","OBJECT_ID":"2021-036BB","ELEMENT_SET_NO":"999","EPOCH":"2022-12-27T06:20:52.183104","TLE_LINE2":"2 48325  53.0555 306.8930 0001707  55.6062 304.5088 15.06401962 91928","SITE":"AFETR","SEMIMAJOR_AXIS":"6925.343","OBJECT_NAME":"STARLINK-2495","MEAN_MOTION_DOT":"0.00000251","MEAN_MOTION_DDOT":"0.0000000000000","NORAD_CAT_ID":"48325","ARG_OF_PERICENTER":"55.6062","CLASSIFICATION_TYPE":"U","MEAN_ELEMENT_THEORY":"SGP4","FILE":"3723863","DECAY_DATE":null,"INCLINATION":"53.0555","BSTAR":"0.00003573500000","LAUNCH_DATE":"2021-04-29","CENTER_NAME":"EARTH","REV_AT_EPOCH":"9192","MEAN_MOTION":"15.06401962","EPHEMERIS_TYPE":"0","MEAN_ANOMALY":"304.5088","REF_FRAME":"TEME","OBJECT_TYPE":"PAYLOAD","GP_ID":"221563123","TIME_SYSTEM":"UTC","TLE_LINE1":"1 48325U 21036BB  22361.26449286  .00000251  00000-0  35735-4 0  9994","PERIAPSIS":"546.025","COUNTRY_CODE":"US","APOAPSIS":"548.390","RCS_SIZE":"LARGE","PERIOD":"95.592","ECCENTRICITY":"0.00017070"},{"INCLINATION":"53.0545","BSTAR":"0.00031887000000","LAUNCH_DATE":"2021-04-29","NORAD_CAT_ID":"48326","CLASSIFICATION_TYPE":"U","ARG_OF_PERICENTER":"67.3333","DECAY_DATE":null,"FILE":"3723863","MEAN_ELEMENT_THEORY":"SGP4","SEMIMAJOR_AXIS":"6925.327","OBJECT_NAME":"STARLINK-2498","MEAN_MOTION_DDOT":"0.0000000000000","MEAN_MOTION_DOT":"0.00004472","RA_OF_ASC_NODE":"306.9122","OBJECT_ID":"2021-036BC","SITE":"AFETR","TLE_LINE2":"2 48326  53.0545 306.9122 0001591  67.3333 292.7824 15.06406896 91921","EPOCH":"2022-12-27T06:15:33.751584","ELEMENT_SET_NO":"999","RCS_SIZE":"LARGE","PERIOD":"95.592","ECCENTRICITY":"0.00015910","APOAPSIS":"548.294","TIME_SYSTEM":"UTC","GP_ID":"221564374","OBJECT_TYPE":"PAYLOAD","TLE_LINE1":"1 48326U 21036BC  22361.26080731  .00004472  00000-0  31887-3 0  9993","PERIAPSIS":"546.091","COUNTRY_CODE":"US","CENTER_NAME":"EARTH","REV_AT_EPOCH":"9192","MEAN_MOTION":"15.06406896","MEAN_ANOMALY":"292.7824","EPHEMERIS_TYPE":"0","REF_FRAME":"TEME"},{"RCS_SIZE":"LARGE","PERIOD":"95.592","ECCENTRICITY":"0.00020120","APOAPSIS":"548.577","GP_ID":"221620877","TIME_SYSTEM":"UTC","OBJECT_TYPE":"PAYLOAD","TLE_LINE1":"1 48327U 21036BD  22361.58884194  .00002647  00000-0  19647-3 0  9996","COUNTRY_CODE":"US","PERIAPSIS":"545.791","CENTER_NAME":"EARTH","MEAN_MOTION":"15.06409673","REV_AT_EPOCH":"9197","EPHEMERIS_TYPE":"0","MEAN_ANOMALY":"307.0534","REF_FRAME":"TEME","BSTAR":"0.00019647000000","INCLINATION":"53.0562","LAUNCH_DATE":"2021-04-29","NORAD_CAT_ID":"48327","ARG_OF_PERICENTER":"53.0639","CLASSIFICATION_TYPE":"U","FILE":"3724149","DECAY_DATE":null,"MEAN_ELEMENT_THEORY":"SGP4","SEMIMAJOR_AXIS":"6925.319","OBJECT_NAME":"STARLINK-2502","MEAN_MOTION_DOT":"0.00002647","MEAN_MOTION_DDOT":"0.0000000000000","RA_OF_ASC_NODE":"305.4391","OBJECT_ID":"2021-036BD","ELEMENT_SET_NO":"999","SITE":"AFETR","TLE_LINE2":"2 48327  53.0562 305.4391 0002012  53.0639 307.0534 15.06409673 91972","EPOCH":"2022-12-27T14:07:55.943616"},{"COUNTRY_CODE":"US","PERIAPSIS":"546.020","TLE_LINE1":"1 48328U 21036BE  22361.58421838  .00001865  00000-0  14407-3 0  9999","GP_ID":"221621127","OBJECT_TYPE":"PAYLOAD","TIME_SYSTEM":"UTC","REF_FRAME":"TEME","MEAN_ANOMALY":"302.6441","EPHEMERIS_TYPE":"0","REV_AT_EPOCH":"9197","MEAN_MOTION":"15.06404762","CENTER_NAME":"EARTH","ECCENTRICITY":"0.00017020","PERIOD":"95.592","RCS_SIZE":"LARGE","APOAPSIS":"548.378","MEAN_MOTION_DDOT":"0.0000000000000","MEAN_MOTION_DOT":"0.00001865","OBJECT_NAME":"STARLINK-2504","SEMIMAJOR_AXIS":"6925.334","TLE_LINE2":"2 48328  53.0542 305.4391 0001702  57.4712 302.6441 15.06404762 91978","SITE":"AFETR","EPOCH":"2022-12-27T14:01:16.468032","ELEMENT_SET_NO":"999","OBJECT_ID":"2021-036BE","RA_OF_ASC_NODE":"305.4391","LAUNCH_DATE":"2021-04-29","INCLINATION":"53.0542","BSTAR":"0.00014407000000","FILE":"3724149","DECAY_DATE":null,"MEAN_ELEMENT_THEORY":"SGP4","CLASSIFICATION_TYPE":"U","ARG_OF_PERICENTER":"57.4712","NORAD_CAT_ID":"48328"},{"RCS_SIZE":"LARGE","PERIOD":"95.591","ECCENTRICITY":"0.00023390","APOAPSIS":"548.787","GP_ID":"221621879","TIME_SYSTEM":"UTC","OBJECT_TYPE":"PAYLOAD","TLE_LINE1":"1 48329U 21036BF  22361.84685712  .00002084  00000-0  15872-3 0  9993","COUNTRY_CODE":"US","PERIAPSIS":"545.547","CENTER_NAME":"EARTH","REV_AT_EPOCH":"9201","MEAN_MOTION":"15.06415246","MEAN_ANOMALY":"304.6030","EPHEMERIS_TYPE":"0","REF_FRAME":"TEME","BSTAR":"0.00015872000000","INCLINATION":"53.0541","LAUNCH_DATE":"2021-04-29","NORAD_CAT_ID":"48329","CLASSIFICATION_TYPE":"U","ARG_OF_PERICENTER":"55.5179","MEAN_ELEMENT_THEORY":"SGP4","FILE":"3724149","DECAY_DATE":null,"SEMIMAJOR_AXIS":"6925.302","OBJECT_NAME":"STARLINK-2510","MEAN_MOTION_DDOT":"0.0000000000000","MEAN_MOTION_DOT":"0.00002084","RA_OF_ASC_NODE":"304.2763","OBJECT_ID":"2021-036BF","TLE_LINE2":"2 48329  53.0541 304.2763 0002339  55.5179 304.6030 15.06415246 92012","SITE":"AFETR","EPOCH":"2022-12-27T20:19:28.455168","ELEMENT_SET_NO":"999"},{"OBJECT_NAME":"STARLINK-2501","SEMIMAJOR_AXIS":"6925.313","MEAN_MOTION_DDOT":"0.0000000000000","MEAN_MOTION_DOT":"0.00002548","OBJECT_ID":"2021-036BG","RA_OF_ASC_NODE":"304.2960","TLE_LINE2":"2 48330  53.0551 304.2960 0001951  52.5985 307.5182 15.06411494 92016","SITE":"AFETR","EPOCH":"2022-12-27T20:14:09.873312","ELEMENT_SET_NO":"999","LAUNCH_DATE":"2021-04-29","BSTAR":"0.00018984000000","INCLINATION":"53.0551","NORAD_CAT_ID":"48330","DECAY_DATE":null,"FILE":"3724149","MEAN_ELEMENT_THEORY":"SGP4","CLASSIFICATION_TYPE":"U","ARG_OF_PERICENTER":"52.5985","TLE_LINE1":"1 48330U 21036BG  22361.84316983  .00002548  00000-0  18984-3 0  9998","OBJECT_TYPE":"PAYLOAD","GP_ID":"221621628","TIME_SYSTEM":"UTC","PERIAPSIS":"545.827","COUNTRY_CODE":"US","MEAN_MOTION":"15.06411494","REV_AT_EPOCH":"9201","CENTER_NAME":"EARTH","REF_FRAME":"TEME","MEAN_ANOMALY":"307.5182","EPHEMERIS_TYPE":"0","PERIOD":"95.591","RCS_SIZE":"LARGE","ECCENTRICITY":"0.00019510","APOAPSIS":"548.529"},{"RA_OF_ASC_NODE":"304.3129","OBJECT_ID":"2021-036BH","ELEMENT_SET_NO":"999","SITE":"AFETR","TLE_LINE2":"2 48331  53.0554 304.3129 0002446  39.4455 320.6712 15.06412309 92015","EPOCH":"2022-12-27T20:08:52.244448","SEMIMAJOR_AXIS":"6925.311","OBJECT_NAME":"STARLINK-2514","MEAN_MOTION_DOT":"0.00005617","MEAN_MOTION_DDOT":"0.0000000000000","NORAD_CAT_ID":"48331","ARG_OF_PERICENTER":"39.4455","CLASSIFICATION_TYPE":"U","FILE":"3724149","DECAY_DATE":null,"MEAN_ELEMENT_THEORY":"SGP4","BSTAR":"0.00039557000000","INCLINATION":"53.0554","LAUNCH_DATE":"2021-04-29","CENTER_NAME":"EARTH","REV_AT_EPOCH":"9201","MEAN_MOTION":"15.06412309","EPHEMERIS_TYPE":"0","MEAN_ANOMALY":"320.6712","REF_FRAME":"TEME","GP_ID":"221620377","TIME_SYSTEM":"UTC","OBJECT_TYPE":"PAYLOAD","TLE_LINE1":"1 48331U 21036BH  22361.83949357  .00005617  00000-0  39557-3 0  9994","PERIAPSIS":"545.482","COUNTRY_CODE":"US","APOAPSIS":"548.870","RCS_SIZE":"LARGE","PERIOD":"95.591","ECCENTRICITY":"0.00024460"},{"OBJECT_TYPE":"PAYLOAD","GP_ID":"221620627","TIME_SYSTEM":"UTC","TLE_LINE1":"1 48332U 21036BJ  22361.63950429  .00008279  00000-0  57374-3 0  9999","COUNTRY_CODE":"US","PERIAPSIS":"546.083","CENTER_NAME":"EARTH","MEAN_MOTION":"15.06421329","REV_AT_EPOCH":"9198","MEAN_ANOMALY":"303.1456","EPHEMERIS_TYPE":"0","REF_FRAME":"TEME","RCS_SIZE":"LARGE","PERIOD":"95.591","ECCENTRICITY":"0.00015380","APOAPSIS":"548.213","SEMIMAJOR_AXIS":"6925.283","OBJECT_NAME":"STARLINK-2511","MEAN_MOTION_DDOT":"0.0000000000000","MEAN_MOTION_DOT":"0.00008279","RA_OF_ASC_NODE":"305.1897","OBJECT_ID":"2021-036BJ","TLE_LINE2":"2 48332  53.0552 305.1897 0001538  56.9681 303.1456 15.06421329 91989","SITE":"AFETR","EPOCH":"2022-12-27T15:20:53.170656","ELEMENT_SET_NO":"999","BSTAR":"0.00057374000000","INCLINATION":"53.0552","LAUNCH_DATE":"2021-04-29","NORAD_CAT_ID":"48332","CLASSIFICATION_TYPE":"U","ARG_OF_PERICENTER":"56.9681","FILE":"3724149","DECAY_DATE":null,"MEAN_ELEMENT_THEORY":"SGP4"}];
